[{"OBJECT_NAME":"YAOGAN-36 04C","OBJECT_ID":"2022-171E","EPOCH":"2026-03-09T18:55:44.889600","MEAN_MOTION":15.29852307,"ECCENTRICITY":0.00066848,"INCLINATION":34.9797,"RA_OF_ASC_NODE":96.6578,"ARG_OF_PERICENTER":275.3761,"MEAN_ANOMALY":84.6192,"EPHEMERIS_TYPE":0,"CLASSIFICATION_TYPE":"U","NORAD_CAT_ID":54750,"ELEMENT_SET_NO":999,"REV_AT_EPOCH":18024,"BSTAR":0.00054591902,"MEAN_MOTION_DOT":0.00016196,"MEAN_MOTION_DDOT":0},{"OBJECT_NAME":"STARLINK-30274","OBJECT_ID":"2023-124K","EPOCH":"2026-03-09T16:05:44.166912","MEAN_MOTION":15.30190934,"ECCENTRICITY":9.576e-5,"INCLINATION":53.1597,"RA_OF_ASC_NODE":207.0386,"ARG_OF_PERICENTER":90.1599,"MEAN_ANOMALY":269.9511,"EPHEMERIS_TYPE":0,"CLASSIFICATION_TYPE":"U","NORAD_CAT_ID":57672,"ELEMENT_SET_NO":999,"REV_AT_EPOCH":14356,"BSTAR":2.8124994e-5,"MEAN_MOTION_DOT":4.74e-6,"MEAN_MOTION_DDOT":0}]
