YAOGAN-36 04C           
1 54750U 22171E   26068.78871400  .00016196  00000+0  54592-3 0  9991
2 54750  34.9797  96.6578 0006685 275.3761  84.6192 15.29852307180246
STARLINK-30274          
1 57672U 23124K   26068.67065007  .00000474  00000+0  28125-4 0  9998
2 57672  53.1597 207.0386 0000958  90.1599 269.9511 15.30190934143567
